[{"OBJECT_NAME":"STARLINK-3691","OBJECT_ID":"2022-025E","EPOCH":"2026-03-10T00:00:02.999808","MEAN_MOTION":15.13329414,"ECCENTRICITY":0.00019663,"INCLINATION":53.0821,"RA_OF_ASC_NODE":34.3258,"ARG_OF_PERICENTER":59.5345,"MEAN_ANOMALY":23.2018,"EPHEMERIS_TYPE":0,"CLASSIFICATION_TYPE":"U","NORAD_CAT_ID":51960,"ELEMENT_SET_NO":999,"REV_AT_EPOCH":579,"BSTAR":0.0028647204,"MEAN_MOTION_DOT":0.00051709,"MEAN_MOTION_DDOT":0},{"OBJECT_NAME":"OBJECT A","OBJECT_ID":"2026-027A","EPOCH":"2026-03-09T21:37:47.784000","MEAN_MOTION":15.17715556,"ECCENTRICITY":0.00101917,"INCLINATION":97.4902,"RA_OF_ASC_NODE":197.9118,"ARG_OF_PERICENTER":193.8683,"MEAN_ANOMALY":166.2272,"EPHEMERIS_TYPE":0,"CLASSIFICATION_TYPE":"U","NORAD_CAT_ID":67746,"ELEMENT_SET_NO":999,"REV_AT_EPOCH":389,"BSTAR":0.00052290801,"MEAN_MOTION_DOT":0.00010498,"MEAN_MOTION_DDOT":0}]
